[{"OBJECT_NAME":"STARLINK-11268 [DTC]","OBJECT_ID":"2024-164F","EPOCH":"2026-03-09T22:50:20.812128","MEAN_MOTION":15.69688292,"ECCENTRICITY":7.421e-5,"INCLINATION":53.1594,"RA_OF_ASC_NODE":309.7114,"ARG_OF_PERICENTER":95.9822,"MEAN_ANOMALY":264.128,"EPHEMERIS_TYPE":0,"CLASSIFICATION_TYPE":"U","NORAD_CAT_ID":61055,"ELEMENT_SET_NO":999,"REV_AT_EPOCH":8546,"BSTAR":2.4699618e-5,"MEAN_MOTION_DOT":2.403e-5,"MEAN_MOTION_DDOT":0},{"OBJECT_NAME":"COSMOS 1408 DEB","OBJECT_ID":"1982-092SW","EPOCH":"2026-03-09T18:18:30.050784","MEAN_MOTION":15.71290453,"ECCENTRICITY":0.00149584,"INCLINATION":82.612,"RA_OF_ASC_NODE":337.7981,"ARG_OF_PERICENTER":124.2456,"MEAN_ANOMALY":236.0226,"EPHEMERIS_TYPE":0,"CLASSIFICATION_TYPE":"U","NORAD_CAT_ID":50058,"ELEMENT_SET_NO":999,"REV_AT_EPOCH":24167,"BSTAR":0.00037213581,"MEAN_MOTION_DOT":0.00047626,"MEAN_MOTION_DDOT":0}]
